$$SOE
2460154.500000000, A.D. 2023-Jul-29 00:00:00.0000, -5.098883051953601E+08, 5.744398379899909E+07, 3.598059107743333E+07,
2460161.500000000, A.D. 2023-Aug-05 00:00:00.0000, -5.118936423645607E+08, 4.740960043590157E+07, 3.462180980512063E+07,
2460168.500000000, A.D. 2023-Aug-12 00:00:00.0000, -5.137173759986352E+08, 3.735837030346943E+07, 3.325074279223032E+07,
2460175.500000000, A.D. 2023-Aug-19 00:00:00.0000, -5.153598100578290E+08, 2.729392722443650E+07, 3.186793817046567E+07,
2460182.500000000, A.D. 2023-Aug-26 00:00:00.0000, -5.168213348347005E+08, 1.721987298715113E+07, 3.047394410784783E+07,
2460189.500000000, A.D. 2023-Sep-02 00:00:00.0000, -5.181024250903482E+08, 7.139775051519818E+06, 2.906930836981802E+07,
2460196.500000000, A.D. 2023-Sep-09 00:00:00.0000, -5.192036381115983E+08, -2.942835751144061E+06, 2.765457788098617E+07,
2460203.500000000, A.D. 2023-Sep-16 00:00:00.0000, -5.201256115269020E+08, -1.302446758116672E+07, 2.623029826790679E+07,
2460210.500000000, A.D. 2023-Sep-23 00:00:00.0000, -5.208690604705461E+08, -2.310166972880305E+07, 2.479701336865392E+07,
2460217.500000000, A.D. 2023-Sep-30 00:00:00.0000, -5.214347744404954E+08, -3.317103333665147E+07, 2.335526483813749E+07,
2460224.500000000, A.D. 2023-Oct-07 00:00:00.0000, -5.218236162096029E+08, -4.322919124931769E+07, 2.190559202113830E+07,
2460231.500000000, A.D. 2023-Oct-14 00:00:00.0000, -5.220365217571952E+08, -5.327282030391672E+07, 2.044853172738386E+07,
2460238.500000000, A.D. 2023-Oct-21 00:00:00.0000, -5.220744979986268E+08, -6.329864445849285E+07, 1.898461774399528E+07,
2460245.500000000, A.D. 2023-Oct-28 00:00:00.0000, -5.219386197416338E+08, -7.330343649858651E+07, 1.751438040108740E+07,
2460252.500000000, A.D. 2023-Nov-04 00:00:00.0000, -5.216300271242574E+08, -8.328401909392768E+07, 1.603834624256670E+07,
2460259.500000000, A.D. 2023-Nov-11 00:00:00.0000, -5.211499233623958E+08, -9.323726580699141E+07, 1.455703773713734E+07,
2460266.500000000, A.D. 2023-Nov-18 00:00:00.0000, -5.204995725930887E+08, -1.031601021193658E+08, 1.307097300442609E+07,
2460273.500000000, A.D. 2023-Nov-25 00:00:00.0000, -5.196802977457926E+08, -1.130495064550754E+08, 1.158066555162526E+07,
2460280.500000000, A.D. 2023-Dec-02 00:00:00.0000, -5.186934784181818E+08, -1.229025112140293E+08, 1.008662401728912E+07,
2460287.500000000, A.D. 2023-Dec-09 00:00:00.0000, -5.175405486831777E+08, -1.327162038767031E+08, 8.589351910353497E+06,
2460294.500000000, A.D. 2023-Dec-16 00:00:00.0000, -5.162229945440019E+08, -1.424877281697686E+08, 7.089347318939112E+06,
2460301.500000000, A.D. 2023-Dec-23 00:00:00.0000, -5.147423506927556E+08, -1.522142846074622E+08, 5.587102612953536E+06,
2460308.500000000, A.D. 2023-Dec-30 00:00:00.0000, -5.131001979160879E+08, -1.618931293617326E+08, 4.083104348857865E+06,
2460315.500000000, A.D. 2024-Jan-06 00:00:00.0000, -5.112981629236046E+08, -1.715215738245935E+08, 2.577833345825307E+06,
2460322.500000000, A.D. 2024-Jan-13 00:00:00.0000, -5.093379174297582E+08, -1.810969866723273E+08, 1.071764494147666E+06,
2460329.500000000, A.D. 2024-Jan-20 00:00:00.0000, -5.072211752681351E+08, -1.906167953492478E+08, -4.346335646755993E+05,
2460336.500000000, A.D. 2024-Jan-27 00:00:00.0000, -5.049496895682172E+08, -2.000784863217425E+08, -1.940898647229046E+06,
2460343.500000000, A.D. 2024-Feb-03 00:00:00.0000, -5.025252504249066E+08, -2.094796050552204E+08, -3.446575165635332E+06,
2460350.500000000, A.D. 2024-Feb-10 00:00:00.0000, -4.999496827864719E+08, -2.188177560092746E+08, -4.951214243010655E+06,
2460357.500000000, A.D. 2024-Feb-17 00:00:00.0000, -4.972248444255775E+08, -2.280906026467437E+08, -6.454373819575742E+06,
2460364.500000000, A.D. 2024-Feb-24 00:00:00.0000, -4.943526239603580E+08, -2.372958674449057E+08, -7.955618752045438E+06,
2460371.500000000, A.D. 2024-Mar-02 00:00:00.0000, -4.913349388983966E+08, -2.464313319440945E+08, -9.454520912131071E+06,
2460378.500000000, A.D. 2024-Mar-09 00:00:00.0000, -4.881737335664427E+08, -2.554948368993474E+08, -1.095065930248283E+07,
2460385.500000000, A.D. 2024-Mar-16 00:00:00.0000, -4.848709765318052E+08, -2.644842823405782E+08, -1.244362021063218E+07,
2460392.500000000, A.D. 2024-Mar-23 00:00:00.0000, -4.814286576198190E+08, -2.733976264349523E+08, -1.393299730120476E+07,
2460399.500000000, A.D. 2024-Mar-30 00:00:00.0000, -4.778487867689537E+08, -2.822328831811120E+08, -1.541839144343023E+07,
2460406.500000000, A.D. 2024-Apr-06 00:00:00.0000, -4.741333944682506E+08, -2.909881223061936E+08, -1.689941057310063E+07,
2460413.500000000, A.D. 2024-Apr-13 00:00:00.0000, -4.702845302272066E+08, -2.996614705323102E+08, -1.837566984677468E+07,
2460420.500000000, A.D. 2024-Apr-20 00:00:00.0000, -4.663042600307876E+08, -3.082511115381185E+08, -1.984679178245424E+07,
2460427.500000000, A.D. 2024-Apr-27 00:00:00.0000, -4.621946642961931E+08, -3.167552851790964E+08, -2.131240629372366E+07,
2460434.500000000, A.D. 2024-May-04 00:00:00.0000, -4.579578362429965E+08, -3.251722866726186E+08, -2.277215068318522E+07,
2460441.500000000, A.D. 2024-May-11 00:00:00.0000, -4.535958804381943E+08, -3.335004658525224E+08, -2.422566962566552E+07,
2460448.500000000, A.D. 2024-May-18 00:00:00.0000, -4.491109114342994E+08, -3.417382264742721E+08, -2.567261514719944E+07,
2460455.500000000, A.D. 2024-May-25 00:00:00.0000, -4.445050524758902E+08, -3.498840255803091E+08, -2.711264660284011E+07,
2460462.500000000, A.D. 2024-Jun-01 00:00:00.0000, -4.397804342147983E+08, -3.579363729852809E+08, -2.854543066363157E+07,
2460469.500000000, A.D. 2024-Jun-08 00:00:00.0000, -4.349391931875042E+08, -3.658938309062198E+08, -2.997064133734076E+07,
2460476.500000000, A.D. 2024-Jun-15 00:00:00.0000, -4.299834696550093E+08, -3.737550131945139E+08, -3.138796001513900E+07,
2460483.500000000, A.D. 2024-Jun-22 00:00:00.0000, -4.249154058098716E+08, -3.815185829962434E+08, -3.279707535605295E+07,
2460490.500000000, A.D. 2024-Jun-29 00:00:00.0000, -4.197371464711717E+08, -3.891832506635211E+08, -3.419768296347454E+07,
2460497.500000000, A.D. 2024-Jul-06 00:00:00.0000, -4.144508396219372E+08, -3.967477743903062E+08, -3.558948529847983E+07,
2460504.500000000, A.D. 2024-Jul-13 00:00:00.0000, -4.090586348396911E+08, -4.042109607506920E+08, -3.697219177817520E+07,
2460511.500000000, A.D. 2024-Jul-20 00:00:00.0000, -4.035626816052240E+08, -4.115716639924107E+08, -3.834551878323734E+07,
2460518.500000000, A.D. 2024-Jul-27 00:00:00.0000, -3.979651281445092E+08, -4.188287850463728E+08, -3.970918959312305E+07,
2460525.500000000, A.D. 2024-Aug-03 00:00:00.0000, -3.922681205297122E+08, -4.259812706287812E+08, -4.106293430498865E+07,
2460532.500000000, A.D. 2024-Aug-10 00:00:00.0000, -3.864738018726240E+08, -4.330281124419323E+08, -4.240648975236264E+07,
2460539.500000000, A.D. 2024-Aug-17 00:00:00.0000, -3.805843115625127E+08, -4.399683464534430E+08, -4.373959942666209E+07,
2460546.500000000, A.D. 2024-Aug-24 00:00:00.0000, -3.746017845199436E+08, -4.468010522772697E+08, -4.506201340645126E+07,
2460553.500000000, A.D. 2024-Aug-31 00:00:00.0000, -3.685283503502461E+08, -4.535253527187690E+08, -4.637348831056026E+07,
2460560.500000000, A.D. 2024-Sep-07 00:00:00.0000, -3.623661320302284E+08, -4.601404133579075E+08, -4.767378729868877E+07,
2460567.500000000, A.D. 2024-Sep-14 00:00:00.0000, -3.561172440416933E+08, -4.666454411750209E+08, -4.896268004627252E+07,
2460574.500000000, A.D. 2024-Sep-21 00:00:00.0000, -3.497837919788966E+08, -4.730396818067679E+08, -5.023994247408840E+07,
2460581.500000000, A.D. 2024-Sep-28 00:00:00.0000, -3.433678741155625E+08, -4.793224186607857E+08, -5.150535645198864E+07,
2460588.500000000, A.D. 2024-Oct-05 00:00:00.0000, -3.368715812605073E+08, -4.854929738890772E+08, -5.275870981367746E+07,
2460595.500000000, A.D. 2024-Oct-12 00:00:00.0000, -3.302969952619188E+08, -4.915507082415697E+08, -5.399979640632543E+07,
2460602.500000000, A.D. 2024-Oct-19 00:00:00.0000, -3.236461879106187E+08, -4.974950200715653E+08, -5.522841603684431E+07,
2460609.500000000, A.D. 2024-Oct-26 00:00:00.0000, -3.169212202738856E+08, -5.033253442950298E+08, -5.644437437756011E+07,
2460616.500000000, A.D. 2024-Nov-02 00:00:00.0000, -3.101241422015133E+08, -5.090411514525158E+08, -5.764748286718091E+07,
2460623.500000000, A.D. 2024-Nov-09 00:00:00.0000, -3.032569919064243E+08, -5.146419468533905E+08, -5.883755861436588E+07,
2460630.500000000, A.D. 2024-Nov-16 00:00:00.0000, -2.963217955928560E+08, -5.201272698024361E+08, -6.001442430635333E+07,
2460637.500000000, A.D. 2024-Nov-23 00:00:00.0000, -2.893205670841245E+08, -5.254966929589868E+08, -6.117790813109502E+07,
2460644.500000000, A.D. 2024-Nov-30 00:00:00.0000, -2.822553072406224E+08, -5.307498218714554E+08, -6.232784373551401E+07,
2460651.500000000, A.D. 2024-Dec-07 00:00:00.0000, -2.751280027475848E+08, -5.358862942667838E+08, -6.346407022397518E+07,
2460658.500000000, A.D. 2024-Dec-14 00:00:00.0000, -2.679406249601962E+08, -5.409057778708527E+08, -6.458643203371778E+07,
2460665.500000000, A.D. 2024-Dec-21 00:00:00.0000, -2.606951311233338E+08, -5.458079680004964E+08, -6.569477857587263E+07,
2460672.500000000, A.D. 2024-Dec-28 00:00:00.0000, -2.533934659921564E+08, -5.505925878947562E+08, -6.678896406542170E+07,
2460679.500000000, A.D. 2025-Jan-04 00:00:00.0000, -2.460375612554419E+08, -5.552593894099159E+08, -6.786884758410764E+07,
2460686.500000000, A.D. 2025-Jan-11 00:00:00.0000, -2.386293345822641E+08, -5.598081524188530E+08, -6.893429307347554E+07,
2460693.500000000, A.D. 2025-Jan-18 00:00:00.0000, -2.311706892080655E+08, -5.642386838334984E+08, -6.998516924880719E+07,
2460700.500000000, A.D. 2025-Jan-25 00:00:00.0000, -2.236635138155971E+08, -5.685508167249082E+08, -7.102134949482784E+07,
2460707.500000000, A.D. 2025-Feb-01 00:00:00.0000, -2.161096825201305E+08, -5.727444095711296E+08, -7.204271176281416E+07,
2460714.500000000, A.D. 2025-Feb-08 00:00:00.0000, -2.085110548994911E+08, -5.768193456133782E+08, -7.304913847268495E+07,
$$EOE